{
  "links" : {
    "next" : "https://api.nasa.gov/neo/rest/v1/feed?start_date=2008-02-16&end_date=2008-02-16&detailed=true&api_key=t0TVs3DtDT2H8Oy2Zy8m2eVrNsAVKAexjcZXUckd",
    "prev" : "https://api.nasa.gov/neo/rest/v1/feed?start_date=2008-02-14&end_date=2008-02-14&detailed=true&api_key=t0TVs3DtDT2H8Oy2Zy8m2eVrNsAVKAexjcZXUckd",
    "self" : "https://api.nasa.gov/neo/rest/v1/feed?start_date=2008-02-15&end_date=2008-02-15&detailed=true&api_key=t0TVs3DtDT2H8Oy2Zy8m2eVrNsAVKAexjcZXUckd"
  },
  "element_count" : 11,
  "near_earth_objects" : {
    "2008-02-15" : [ {
      "links" : {
        "self" : "https://api.nasa.gov/neo/rest/v1/neo/3402249?api_key=t0TVs3DtDT2H8Oy2Zy8m2eVrNsAVKAexjcZXUckd"
      },
      "neo_reference_id" : "3402249",
      "name" : "(2008 CK70)",
      "nasa_jpl_url" : "http://ssd.jpl.nasa.gov/sbdb.cgi?sstr=3402249",
      "absolute_magnitude_h" : 24.9,
      "estimated_diameter" : {
        "kilometers" : {
          "estimated_diameter_min" : 0.0278326768,
          "estimated_diameter_max" : 0.0622357573
        },
        "meters" : {
          "estimated_diameter_min" : 27.8326768072,
          "estimated_diameter_max" : 62.2357573367
        },
        "miles" : {
          "estimated_diameter_min" : 0.0172944182,
          "estimated_diameter_max" : 0.0386714948
        },
        "feet" : {
          "estimated_diameter_min" : 91.3145593761,
          "estimated_diameter_max" : 204.1855621004
        }
      },
      "is_potentially_hazardous_asteroid" : false,
      "close_approach_data" : [ {
        "close_approach_date" : "2008-02-15",
        "epoch_date_close_approach" : 1203062400000,
        "relative_velocity" : {
          "kilometers_per_second" : "15.4438001637",
          "kilometers_per_hour" : "55597.6805893031",
          "miles_per_hour" : "34546.23658617"
        },
        "miss_distance" : {
          "astronomical" : "0.0024813724",
          "lunar" : "0.96525383",
          "kilometers" : "371208.03125",
          "miles" : "230657.96875"
        },
        "orbiting_body" : "Earth"
      } ],
      "orbital_data" : {
        "orbit_id" : "13",
        "orbit_determination_date" : "2017-04-06 09:04:24",
        "orbit_uncertainty" : "6",
        "minimum_orbit_intersection" : "9.11656E-5",
        "jupiter_tisserand_invariant" : "5.526",
        "epoch_osculation" : "2458000.5",
        "eccentricity" : ".4694602563724672",
        "semi_major_axis" : "1.103002682457404",
        "inclination" : "6.075099589539104",
        "ascending_node_longitude" : "145.7503038348923",
        "orbital_period" : "423.1197328560906",
        "perihelion_distance" : ".5851867603714319",
        "perihelion_argument" : "105.8638802004582",
        "aphelion_distance" : "1.620818604543376",
        "perihelion_time" : "2457956.985059116149",
        "mean_anomaly" : "37.02351249950921",
        "mean_motion" : ".8508229988943613",
        "equinox" : "J2000"
      }
    }, {
      "links" : {
        "self" : "https://api.nasa.gov/neo/rest/v1/neo/3402366?api_key=t0TVs3DtDT2H8Oy2Zy8m2eVrNsAVKAexjcZXUckd"
      },
      "neo_reference_id" : "3402366",
      "name" : "(2008 CM74)",
      "nasa_jpl_url" : "http://ssd.jpl.nasa.gov/sbdb.cgi?sstr=3402366",
      "absolute_magnitude_h" : 28.1,
      "estimated_diameter" : {
        "kilometers" : {
          "estimated_diameter_min" : 0.0063760979,
          "estimated_diameter_max" : 0.0142573883
        },
        "meters" : {
          "estimated_diameter_min" : 6.3760978988,
          "estimated_diameter_max" : 14.2573883328
        },
        "miles" : {
          "estimated_diameter_min" : 0.0039619223,
          "estimated_diameter_max" : 0.0088591276
        },
        "feet" : {
          "estimated_diameter_min" : 20.9189570301,
          "estimated_diameter_max" : 46.7762099378
        }
      },
      "is_potentially_hazardous_asteroid" : false,
      "close_approach_data" : [ {
        "close_approach_date" : "2008-02-15",
        "epoch_date_close_approach" : 1203062400000,
        "relative_velocity" : {
          "kilometers_per_second" : "4.3439613931",
          "kilometers_per_hour" : "15638.2610151014",
          "miles_per_hour" : "9717.007240189"
        },
        "miss_distance" : {
          "astronomical" : "0.0063569258",
          "lunar" : "2.4728441238",
          "kilometers" : "950982.5625",
          "miles" : "590913.1875"
        },
        "orbiting_body" : "Earth"
      } ],
      "orbital_data" : {
        "orbit_id" : "8",
        "orbit_determination_date" : "2017-04-06 09:04:23",
        "orbit_uncertainty" : "6",
        "minimum_orbit_intersection" : ".00148675",
        "jupiter_tisserand_invariant" : "5.683",
        "epoch_osculation" : "2458000.5",
        "eccentricity" : ".146856260799261",
        "semi_major_axis" : "1.089053469538053",
        "inclination" : ".855024452061671",
        "ascending_node_longitude" : "321.5308626919821",
        "orbital_period" : "415.1186365824448",
        "perihelion_distance" : ".9291191491912323",
        "perihelion_argument" : "242.7486861250422",
        "aphelion_distance" : "1.248987789884873",
        "perihelion_time" : "2457884.006484277562",
        "mean_anomaly" : "101.025735691702",
        "mean_motion" : ".8672219656621032",
        "equinox" : "J2000"
      }
    }, {
      "links" : {
        "self" : "https://api.nasa.gov/neo/rest/v1/neo/3402615?api_key=t0TVs3DtDT2H8Oy2Zy8m2eVrNsAVKAexjcZXUckd"
      },
      "neo_reference_id" : "3402615",
      "name" : "(2008 CN116)",
      "nasa_jpl_url" : "http://ssd.jpl.nasa.gov/sbdb.cgi?sstr=3402615",
      "absolute_magnitude_h" : 26.6,
      "estimated_diameter" : {
        "kilometers" : {
          "estimated_diameter_min" : 0.0127219879,
          "estimated_diameter_max" : 0.0284472297
        },
        "meters" : {
          "estimated_diameter_min" : 12.7219878539,
          "estimated_diameter_max" : 28.4472296503
        },
        "miles" : {
          "estimated_diameter_min" : 0.0079050743,
          "estimated_diameter_max" : 0.0176762835
        },
        "feet" : {
          "estimated_diameter_min" : 41.7388066307,
          "estimated_diameter_max" : 93.330808926
        }
      },
      "is_potentially_hazardous_asteroid" : false,
      "close_approach_data" : [ {
        "close_approach_date" : "2008-02-15",
        "epoch_date_close_approach" : 1203062400000,
        "relative_velocity" : {
          "kilometers_per_second" : "10.2867385442",
          "kilometers_per_hour" : "37032.2587592186",
          "miles_per_hour" : "23010.4054495823"
        },
        "miss_distance" : {
          "astronomical" : "0.0148237167",
          "lunar" : "5.7664260864",
          "kilometers" : "2217596.5",
          "miles" : "1377950.625"
        },
        "orbiting_body" : "Earth"
      } ],
      "orbital_data" : {
        "orbit_id" : "7",
        "orbit_determination_date" : "2017-04-06 09:04:22",
        "orbit_uncertainty" : "7",
        "minimum_orbit_intersection" : ".00680775",
        "jupiter_tisserand_invariant" : "5.169",
        "epoch_osculation" : "2458000.5",
        "eccentricity" : ".3612925748471869",
        "semi_major_axis" : "1.219608542880369",
        "inclination" : "2.388737975248496",
        "ascending_node_longitude" : "135.6595896216836",
        "orbital_period" : "491.9592304836144",
        "perihelion_distance" : ".7789730321174946",
        "perihelion_argument" : "87.74884981548058",
        "aphelion_distance" : "1.660244053643243",
        "perihelion_time" : "2458011.339289329993",
        "mean_anomaly" : "352.0681554140949",
        "mean_motion" : ".7317679549301402",
        "equinox" : "J2000"
      }
    } ]
  }
}